CCSDS_OMM_VERS = 2.0
CREATION_DATE  = 
ORIGINATOR     = 

OBJECT_NAME    = UNKNOWN
OBJECT_ID      = 
CENTER_NAME    = EARTH
REF_FRAME      = TEME
TIME_SYSTEM    = UTC
MEAN_ELEMENT_THEORY = SGP/SGP4

EPOCH          = 2026-03-31T05:12:14.427360
MEAN_MOTION    = 13.12608920
ECCENTRICITY   = .0867514
INCLINATION    = 65.8126
RA_OF_ASC_NODE = 270.5346
ARG_OF_PERICENTER = 271.9483
MEAN_ANOMALY   = 78.2537

EPHEMERIS_TYPE = 0
CLASSIFICATION_TYPE = U
NORAD_CAT_ID   = 81406
ELEMENT_SET_NO = 999
REV_AT_EPOCH   = 54791
BSTAR          = .40501E-3
MEAN_MOTION_DOT = .967E-5
MEAN_MOTION_DDOT = 0

CCSDS_OMM_VERS = 2.0
CREATION_DATE  = 
ORIGINATOR     = 

OBJECT_NAME    = UNKNOWN
OBJECT_ID      = 
CENTER_NAME    = EARTH
REF_FRAME      = TEME
TIME_SYSTEM    = UTC
MEAN_ELEMENT_THEORY = SGP/SGP4

EPOCH          = 2026-03-27T09:22:43.884480
MEAN_MOTION    = 14.07121940
ECCENTRICITY   = .0085147
INCLINATION    = 98.7403
RA_OF_ASC_NODE = 330.1311
ARG_OF_PERICENTER = 102.9516
MEAN_ANOMALY   = 258.1178

EPHEMERIS_TYPE = 0
CLASSIFICATION_TYPE = U
NORAD_CAT_ID   = 81427
ELEMENT_SET_NO = 999
REV_AT_EPOCH   = 56648
BSTAR          = .48485E-3
MEAN_MOTION_DOT = .797E-5
MEAN_MOTION_DDOT = 0

CCSDS_OMM_VERS = 2.0
CREATION_DATE  = 
ORIGINATOR     = 

OBJECT_NAME    = UNKNOWN
OBJECT_ID      = 
CENTER_NAME    = EARTH
REF_FRAME      = TEME
TIME_SYSTEM    = UTC
MEAN_ELEMENT_THEORY = SGP/SGP4

EPOCH          = 2026-04-01T09:30:32.687424
MEAN_MOTION    = 13.55328153
ECCENTRICITY   = .0044711
INCLINATION    = 100.3285
RA_OF_ASC_NODE = 332.9382
ARG_OF_PERICENTER = 164.3261
MEAN_ANOMALY   = 195.9270

EPHEMERIS_TYPE = 0
CLASSIFICATION_TYPE = U
NORAD_CAT_ID   = 81438
ELEMENT_SET_NO = 999
REV_AT_EPOCH   = 60679
BSTAR          = .37721E-2
MEAN_MOTION_DOT = .258E-4
MEAN_MOTION_DDOT = 0

CCSDS_OMM_VERS = 2.0
CREATION_DATE  = 
ORIGINATOR     = 

OBJECT_NAME    = UNKNOWN
OBJECT_ID      = 
CENTER_NAME    = EARTH
REF_FRAME      = TEME
TIME_SYSTEM    = UTC
MEAN_ELEMENT_THEORY = SGP/SGP4

EPOCH          = 2026-04-02T18:43:33.161952
MEAN_MOTION    = 12.62683771
ECCENTRICITY   = .0596388
INCLINATION    = 67.1591
RA_OF_ASC_NODE = 287.0928
ARG_OF_PERICENTER = 134.5947
MEAN_ANOMALY   = 230.5363

EPHEMERIS_TYPE = 0
CLASSIFICATION_TYPE = U
NORAD_CAT_ID   = 81439
ELEMENT_SET_NO = 999
REV_AT_EPOCH   = 27591
BSTAR          = .10683E-2
MEAN_MOTION_DOT = .332E-5
MEAN_MOTION_DDOT = 0

CCSDS_OMM_VERS = 2.0
CREATION_DATE  = 
ORIGINATOR     = 

OBJECT_NAME    = UNKNOWN
OBJECT_ID      = 
CENTER_NAME    = EARTH
REF_FRAME      = TEME
TIME_SYSTEM    = UTC
MEAN_ELEMENT_THEORY = SGP/SGP4

EPOCH          = 2026-04-02T19:04:46.133760
MEAN_MOTION    = 15.27417389
ECCENTRICITY   = .0012666
INCLINATION    = 66.7917
RA_OF_ASC_NODE = 22.6376
ARG_OF_PERICENTER = 0.2967
MEAN_ANOMALY   = 359.8186

EPHEMERIS_TYPE = 0
CLASSIFICATION_TYPE = U
NORAD_CAT_ID   = 81449
ELEMENT_SET_NO = 999
REV_AT_EPOCH   = 65033
BSTAR          = .13338E-1
MEAN_MOTION_DOT = .378767E-2
MEAN_MOTION_DDOT = 0

CCSDS_OMM_VERS = 2.0
CREATION_DATE  = 
ORIGINATOR     = 

OBJECT_NAME    = UNKNOWN
OBJECT_ID      = 
CENTER_NAME    = EARTH
REF_FRAME      = TEME
TIME_SYSTEM    = UTC
MEAN_ELEMENT_THEORY = SGP/SGP4

EPOCH          = 2026-03-30T17:50:09.644352
MEAN_MOTION    = 14.29229681
ECCENTRICITY   = .014619
INCLINATION    = 98.9514
RA_OF_ASC_NODE = 9.4910
ARG_OF_PERICENTER = 44.9092
MEAN_ANOMALY   = 10.5406

EPHEMERIS_TYPE = 0
CLASSIFICATION_TYPE = U
NORAD_CAT_ID   = 81478
ELEMENT_SET_NO = 999
REV_AT_EPOCH   = 63836
BSTAR          = .22441E-2
MEAN_MOTION_DOT = .6357E-4
MEAN_MOTION_DDOT = 0

CCSDS_OMM_VERS = 2.0
CREATION_DATE  = 
ORIGINATOR     = 

OBJECT_NAME    = UNKNOWN
OBJECT_ID      = 
CENTER_NAME    = EARTH
REF_FRAME      = TEME
TIME_SYSTEM    = UTC
MEAN_ELEMENT_THEORY = SGP/SGP4

EPOCH          = 2026-04-01T03:33:05.878944
MEAN_MOTION    = 13.56567478
ECCENTRICITY   = .0045202
INCLINATION    = 99.9892
RA_OF_ASC_NODE = 330.3857
ARG_OF_PERICENTER = 88.1004
MEAN_ANOMALY   = 64.4093

EPHEMERIS_TYPE = 0
CLASSIFICATION_TYPE = U
NORAD_CAT_ID   = 81488
ELEMENT_SET_NO = 999
REV_AT_EPOCH   = 61146
BSTAR          = .53529E-3
MEAN_MOTION_DOT = .334E-5
MEAN_MOTION_DDOT = 0

CCSDS_OMM_VERS = 2.0
CREATION_DATE  = 
ORIGINATOR     = 

OBJECT_NAME    = UNKNOWN
OBJECT_ID      = 
CENTER_NAME    = EARTH
REF_FRAME      = TEME
TIME_SYSTEM    = UTC
MEAN_ELEMENT_THEORY = SGP/SGP4

EPOCH          = 2026-03-31T00:18:06.016896
MEAN_MOTION    = 13.85030533
ECCENTRICITY   = .0028789
INCLINATION    = 100.3002
RA_OF_ASC_NODE = 0.0667
ARG_OF_PERICENTER = 94.1932
MEAN_ANOMALY   = 284.8187

EPHEMERIS_TYPE = 0
CLASSIFICATION_TYPE = U
NORAD_CAT_ID   = 81497
ELEMENT_SET_NO = 999
REV_AT_EPOCH   = 23128
BSTAR          = .38873E-2
MEAN_MOTION_DOT = .4363E-4
MEAN_MOTION_DDOT = 0

CCSDS_OMM_VERS = 2.0
CREATION_DATE  = 
ORIGINATOR     = 

OBJECT_NAME    = UNKNOWN
OBJECT_ID      = 
CENTER_NAME    = EARTH
REF_FRAME      = TEME
TIME_SYSTEM    = UTC
MEAN_ELEMENT_THEORY = SGP/SGP4

EPOCH          = 2026-04-01T12:37:27.693408
MEAN_MOTION    = 14.47834467
ECCENTRICITY   = .0001649
INCLINATION    = 74.0502
RA_OF_ASC_NODE = 15.9008
ARG_OF_PERICENTER = 170.0115
MEAN_ANOMALY   = 190.1077

EPHEMERIS_TYPE = 0
CLASSIFICATION_TYPE = U
NORAD_CAT_ID   = 81499
ELEMENT_SET_NO = 999
REV_AT_EPOCH   = 49830
BSTAR          = .63081E-3
MEAN_MOTION_DOT = .2308E-4
MEAN_MOTION_DDOT = 0

CCSDS_OMM_VERS = 2.0
CREATION_DATE  = 
ORIGINATOR     = 

OBJECT_NAME    = UNKNOWN
OBJECT_ID      = 
CENTER_NAME    = EARTH
REF_FRAME      = TEME
TIME_SYSTEM    = UTC
MEAN_ELEMENT_THEORY = SGP/SGP4

EPOCH          = 2026-04-02T11:51:05.448384
MEAN_MOTION    = 14.13713517
ECCENTRICITY   = .023489
INCLINATION    = 98.1871
RA_OF_ASC_NODE = 170.6098
ARG_OF_PERICENTER = 187.7371
MEAN_ANOMALY   = 172.0155

EPHEMERIS_TYPE = 0
CLASSIFICATION_TYPE = U
NORAD_CAT_ID   = 81535
ELEMENT_SET_NO = 999
REV_AT_EPOCH   = 40304
BSTAR          = .81001E-3
MEAN_MOTION_DOT = .1953E-4
MEAN_MOTION_DDOT = 0

CCSDS_OMM_VERS = 2.0
CREATION_DATE  = 
ORIGINATOR     = 

OBJECT_NAME    = UNKNOWN
OBJECT_ID      = 
CENTER_NAME    = EARTH
REF_FRAME      = TEME
TIME_SYSTEM    = UTC
MEAN_ELEMENT_THEORY = SGP/SGP4

EPOCH          = 2026-04-01T21:29:48.804864
MEAN_MOTION    = 12.56012272
ECCENTRICITY   = .0025997
INCLINATION    = 101.9670
RA_OF_ASC_NODE = 319.3055
ARG_OF_PERICENTER = 61.2829
MEAN_ANOMALY   = 320.0215

EPHEMERIS_TYPE = 0
CLASSIFICATION_TYPE = U
NORAD_CAT_ID   = 81536
ELEMENT_SET_NO = 999
REV_AT_EPOCH   = 56564
BSTAR          = .42191E-2
MEAN_MOTION_DOT = .649E-5
MEAN_MOTION_DDOT = 0

CCSDS_OMM_VERS = 2.0
CREATION_DATE  = 
ORIGINATOR     = 

OBJECT_NAME    = UNKNOWN
OBJECT_ID      = 
CENTER_NAME    = EARTH
REF_FRAME      = TEME
TIME_SYSTEM    = UTC
MEAN_ELEMENT_THEORY = SGP/SGP4

EPOCH          = 2026-04-02T03:35:59.347680
MEAN_MOTION    = 14.07174011
ECCENTRICITY   = .0077584
INCLINATION    = 71.0377
RA_OF_ASC_NODE = 240.8073
ARG_OF_PERICENTER = 344.4619
MEAN_ANOMALY   = 15.4118

EPHEMERIS_TYPE = 0
CLASSIFICATION_TYPE = U
NORAD_CAT_ID   = 81537
ELEMENT_SET_NO = 999
REV_AT_EPOCH   = 63599
BSTAR          = .29401E-3
MEAN_MOTION_DOT = .46E-5
MEAN_MOTION_DDOT = 0

