UNKNOWN                 
1 81406U          26090.21683365  .00000967  00000+0  40501-3 0  9994
2 81406  65.8126 270.5346 0867514 271.9483  78.2537 13.12608920547911
UNKNOWN                 
1 81427U          26086.39078570  .00000797  00000+0  48485-3 0  9997
2 81427  98.7403 330.1311 0085147 102.9516 258.1178 14.07121940566486
UNKNOWN                 
1 81438U          26091.39621166  .00002580  00000+0  37721-2 0  9992
2 81438 100.3285 332.9382 0044711 164.3261 195.9270 13.55328153606792
UNKNOWN                 
1 81439U          26092.78024493  .00000332  00000+0  10683-2 0  9998
2 81439  67.1591 287.0928 0596388 134.5947 230.5363 12.62683771275913
UNKNOWN                 
1 81449U          26092.79497840  .00378767  00000+0  13338-1 0  9999
2 81449  66.7917  22.6376 0012666   0.2967 359.8186 15.27417389650339
UNKNOWN                 
1 81478U          26089.74316718  .00006357  00000+0  22441-2 0  9995
2 81478  98.9514   9.4910 0146190  44.9092  10.5406 14.29229681638364
UNKNOWN                 
1 81488U          26091.14798471  .00000334  00000+0  53529-3 0  9994
2 81488  99.9892 330.3857 0045202  88.1004  64.4093 13.56567478611466
UNKNOWN                 
1 81497U          26090.01256964  .00004363  00000+0  38873-2 0  9995
2 81497 100.3002   0.0667 0028789  94.1932 284.8187 13.85030533231283
UNKNOWN                 
1 81499U          26091.52601497  .00002308  00000+0  63081-3 0  9996
2 81499  74.0502  15.9008 0001649 170.0115 190.1077 14.47834467498306
UNKNOWN                 
1 81535U          26092.49381306  .00001953  00000+0  81001-3 0  9995
2 81535  98.1871 170.6098 0234890 187.7371 172.0155 14.13713517403044
UNKNOWN                 
1 81536U          26091.89570376  .00000649  00000+0  42191-2 0  9993
2 81536 101.9670 319.3055 0025997  61.2829 320.0215 12.56012272565642
UNKNOWN                 
1 81537U          26092.14999245  .00000460  00000+0  29401-3 0  9994
2 81537  71.0377 240.8073 0077584 344.4619  15.4118 14.07174011635995
